[{"OBJECT_NAME":"STARLINK-34607","OBJECT_ID":"2025-144U","EPOCH":"2026-03-09T12:33:13.745664","MEAN_MOTION":15.30171229,"ECCENTRICITY":0.00014418,"INCLINATION":53.1586,"RA_OF_ASC_NODE":182.0056,"ARG_OF_PERICENTER":112.0264,"MEAN_ANOMALY":248.089,"EPHEMERIS_TYPE":0,"CLASSIFICATION_TYPE":"U","NORAD_CAT_ID":64742,"ELEMENT_SET_NO":999,"REV_AT_EPOCH":3966,"BSTAR":0.00026793801,"MEAN_MOTION_DOT":7.577e-5,"MEAN_MOTION_DDOT":0},{"OBJECT_NAME":"GEOSCAN 2 (RS92S2)","OBJECT_ID":"2025-155Q","EPOCH":"2026-03-09T23:01:48.939744","MEAN_MOTION":15.28709337,"ECCENTRICITY":0.00085277,"INCLINATION":97.4463,"RA_OF_ASC_NODE":37.5259,"ARG_OF_PERICENTER":140.9505,"MEAN_ANOMALY":219.2352,"EPHEMERIS_TYPE":0,"CLASSIFICATION_TYPE":"U","NORAD_CAT_ID":64890,"ELEMENT_SET_NO":999,"REV_AT_EPOCH":6561,"BSTAR":0.00051551761,"MEAN_MOTION_DOT":0.00014341,"MEAN_MOTION_DDOT":0}]
